{"fetched_at":"2026-03-30T13:17:50Z","count":15418,"tles":[{"name":"STARLINK-32004","line1":"1 60151U 24120S   26087.67009530  .00000665  00000+0  34565-4 0  9998","line2":"2 60151  53.1599 231.6508 0001178  90.8249 269.2887 15.30194517 99366","category":"Starlink"}]}