{
  "norad_id": 60151,
  "name": "STARLINK-32004",
  "history": [
    {
      "epoch": "2026-03-28T16:04:56.233920Z",
      "apogee_km": 476.03876752020733,
      "perigee_km": 474.4241139155747,
      "latitude_deg": 2.459684904295127e-05,
      "longitude_deg": 164.3292984228324,
      "height_km": 476.1412475943373,
      "semi_major_axis_km": 6853.368440717891,
      "eccentricity": 0.0001178,
      "inclination_deg": 53.1599,
      "raan_deg": 231.6508,
      "arg_perigee_deg": 90.8249,
      "mean_anomaly_deg": 269.2887,
      "mean_motion_rev_day": 15.30194517
    }
  ]
}